[{"OBJECT_NAME":"STARLINK-31100","OBJECT_ID":"2024-002K","EPOCH":"2026-03-09T16:07:57.831168","MEAN_MOTION":15.30196314,"ECCENTRICITY":0.00010453,"INCLINATION":53.1594,"RA_OF_ASC_NODE":229.9438,"ARG_OF_PERICENTER":90.8021,"MEAN_ANOMALY":269.31,"EPHEMERIS_TYPE":0,"CLASSIFICATION_TYPE":"U","NORAD_CAT_ID":58714,"ELEMENT_SET_NO":999,"REV_AT_EPOCH":12201,"BSTAR":8.36718e-7,"MEAN_MOTION_DOT":-3.34e-6,"MEAN_MOTION_DDOT":0},{"OBJECT_NAME":"HERMES-3","OBJECT_ID":"2025-052BR","EPOCH":"2026-03-09T22:30:01.073952","MEAN_MOTION":15.30039786,"ECCENTRICITY":0.00079928,"INCLINATION":97.3987,"RA_OF_ASC_NODE":324.6131,"ARG_OF_PERICENTER":112.9583,"MEAN_ANOMALY":247.2502,"EPHEMERIS_TYPE":0,"CLASSIFICATION_TYPE":"U","NORAD_CAT_ID":63835,"ELEMENT_SET_NO":999,"REV_AT_EPOCH":5486,"BSTAR":0.0006995793,"MEAN_MOTION_DOT":0.00020316,"MEAN_MOTION_DDOT":0}]
